SCD 1                   
1 22490U 93009B   26094.88909630  .00000614  00000+0  11698-3 0  9990
2 22490  24.9700 300.1392 0042104  82.2974  52.5363 14.46086256750493
TECHSAT 1B (GO-32)      
1 25397U 98043D   26095.22203457  .00000113  00000+0  68983-4 0  9999
2 25397  99.0053  86.1499 0002304  76.7559 283.3876 14.24413734440940
SCD 2                   
1 25504U 98060A   26095.25804715  .00000520  00000+0  94261-4 0  9995
2 25504  24.9941 161.9025 0017019  72.6093 338.5263 14.45497754449766
DLR-TUBSAT              
1 25757U 99029B   26095.20028338  .00000180  00000+0  55982-4 0  9994
2 25757  98.6687  88.3105 0013608 208.1302 151.9159 14.52407803422655
TERRA                   
1 25994U 99068A   26095.21172110  .00000683  00000+0  14810-3 0  9991
2 25994  97.9537 147.6258 0003671  97.2018 284.2865 14.61045304398955
MAROC-TUBSAT            
1 27004U 01056D   26095.22805824 -.00000030  00000+0  19045-4 0  9994
2 27004  99.8042 270.7190 0019437 331.8099 206.0402 13.70259361216190
AQUA                    
1 27424U 02022A   26095.24879583  .00001495  00000+0  30768-3 0  9998
2 27424  98.4220  63.1068 0001432 115.0459 357.1425 14.62042696272610
IRS-P6 (RESOURCESAT-1)  
1 28051U 03046A   26095.29622392  .00000466  00000+0  17015-3 0  9998
2 28051  98.1989 135.3534 0063674 199.9203 292.2665 14.36134638170060
SHIYAN-1 (SY-1)         
1 28220U 04012A   26095.19882252  .00018938  00000+0  61602-3 0  9996
2 28220  97.8723 168.6276 0004480 274.9519  85.1209 15.31930128199918
AURA                    
1 28376U 04026A   26095.19814041  .00001515  00000+0  31724-3 0  9999
2 28376  98.3355  51.0815 0001430  94.2439 265.8924 14.61214321155552
IRS-P5 (CARTOSAT-1)     
1 28649U 05017A   26095.05947567  .00001973  00000+0  20556-3 0  9997
2 28649  97.5372 121.4278 0000896  53.6932 306.4370 14.90862559132929
SINAH 1                 
1 28893U 05043D   26095.27161021  .00000700  00000+0  14235-3 0  9998
2 28893  98.2736 229.2123 0015322 141.1793 219.0513 14.64105610 89856
RESURS-DK 1             
1 29228U 06021A   26095.24801308  .00003399  00000+0  19856-3 0  9995
2 29228  69.9329 168.3203 0002060  32.7151 327.4142 15.12915812 91540
ARIRANG-2 (KOMPSAT-2)   
1 29268U 06031A   26095.28277469  .00000568  00000+0  11533-3 0  9998
2 29268  97.8304 283.2532 0013351 308.9139 224.2485 14.64614007 50804
LAPAN-TUBSAT            
1 29709U 07001A   26095.25814733  .00000964  00000+0  11715-3 0  9996
2 29709  98.1343  92.8452 0013516  65.4170 294.8451 14.85873371 40325
HAIYANG-1B              
1 31113U 07010A   26094.93801375  .00000153  00000+0  74067-4 0  9990
2 31113  98.3461  79.6408 0014632  60.9864 299.2784 14.31008397990156
