[{"OBJECT_NAME":"SCD 1","OBJECT_ID":"1993-009B","EPOCH":"2026-04-04T21:20:17.920320","MEAN_MOTION":14.46086256,"ECCENTRICITY":0.00421044,"INCLINATION":24.97,"RA_OF_ASC_NODE":300.1392,"ARG_OF_PERICENTER":82.2974,"MEAN_ANOMALY":52.5363,"EPHEMERIS_TYPE":0,"CLASSIFICATION_TYPE":"U","NORAD_CAT_ID":22490,"ELEMENT_SET_NO":999,"REV_AT_EPOCH":75049,"BSTAR":0.00011697509,"MEAN_MOTION_DOT":6.14e-6,"MEAN_MOTION_DDOT":0},{"OBJECT_NAME":"TECHSAT 1B (GO-32)","OBJECT_ID":"1998-043D","EPOCH":"2026-04-05T05:19:43.786848","MEAN_MOTION":14.24413734,"ECCENTRICITY":0.00023049,"INCLINATION":99.0053,"RA_OF_ASC_NODE":86.1499,"ARG_OF_PERICENTER":76.7559,"MEAN_ANOMALY":283.3876,"EPHEMERIS_TYPE":0,"CLASSIFICATION_TYPE":"U","NORAD_CAT_ID":25397,"ELEMENT_SET_NO":999,"REV_AT_EPOCH":44094,"BSTAR":6.8983234e-5,"MEAN_MOTION_DOT":1.13e-6,"MEAN_MOTION_DDOT":0},{"OBJECT_NAME":"SCD 2","OBJECT_ID":"1998-060A","EPOCH":"2026-04-05T06:11:35.273760","MEAN_MOTION":14.45497754,"ECCENTRICITY":0.00170193,"INCLINATION":24.9941,"RA_OF_ASC_NODE":161.9025,"ARG_OF_PERICENTER":72.6093,"MEAN_ANOMALY":338.5263,"EPHEMERIS_TYPE":0,"CLASSIFICATION_TYPE":"U","NORAD_CAT_ID":25504,"ELEMENT_SET_NO":999,"REV_AT_EPOCH":44976,"BSTAR":9.4260534e-5,"MEAN_MOTION_DOT":5.2e-6,"MEAN_MOTION_DDOT":0},{"OBJECT_NAME":"DLR-TUBSAT","OBJECT_ID":"1999-029B","EPOCH":"2026-04-05T04:48:24.484032","MEAN_MOTION":14.52407803,"ECCENTRICITY":0.00136085,"INCLINATION":98.6687,"RA_OF_ASC_NODE":88.3105,"ARG_OF_PERICENTER":208.1302,"MEAN_ANOMALY":151.9159,"EPHEMERIS_TYPE":0,"CLASSIFICATION_TYPE":"U","NORAD_CAT_ID":25757,"ELEMENT_SET_NO":999,"REV_AT_EPOCH":42265,"BSTAR":5.5981695e-5,"MEAN_MOTION_DOT":1.8e-6,"MEAN_MOTION_DDOT":0},{"OBJECT_NAME":"TERRA","OBJECT_ID":"1999-068A","EPOCH":"2026-04-05T05:04:52.703040","MEAN_MOTION":14.61045304,"ECCENTRICITY":0.00036711,"INCLINATION":97.9537,"RA_OF_ASC_NODE":147.6258,"ARG_OF_PERICENTER":97.2018,"MEAN_ANOMALY":284.2865,"EPHEMERIS_TYPE":0,"CLASSIFICATION_TYPE":"U","NORAD_CAT_ID":25994,"ELEMENT_SET_NO":999,"REV_AT_EPOCH":39895,"BSTAR":0.00014809783,"MEAN_MOTION_DOT":6.83e-6,"MEAN_MOTION_DDOT":0},{"OBJECT_NAME":"MAROC-TUBSAT","OBJECT_ID":"2001-056D","EPOCH":"2026-04-05T05:28:24.231936","MEAN_MOTION":13.70259361,"ECCENTRICITY":0.00194373,"INCLINATION":99.8042,"RA_OF_ASC_NODE":270.719,"ARG_OF_PERICENTER":331.8099,"MEAN_ANOMALY":206.0402,"EPHEMERIS_TYPE":0,"CLASSIFICATION_TYPE":"U","NORAD_CAT_ID":27004,"ELEMENT_SET_NO":999,"REV_AT_EPOCH":21619,"BSTAR":1.9044564e-5,"MEAN_MOTION_DOT":-3.0e-7,"MEAN_MOTION_DDOT":0},{"OBJECT_NAME":"AQUA","OBJECT_ID":"2002-022A","EPOCH":"2026-04-05T05:58:15.959712","MEAN_MOTION":14.62042696,"ECCENTRICITY":0.00014329,"INCLINATION":98.422,"RA_OF_ASC_NODE":63.1068,"ARG_OF_PERICENTER":115.0459,"MEAN_ANOMALY":357.1425,"EPHEMERIS_TYPE":0,"CLASSIFICATION_TYPE":"U","NORAD_CAT_ID":27424,"ELEMENT_SET_NO":999,"REV_AT_EPOCH":27261,"BSTAR":0.00030767904,"MEAN_MOTION_DOT":1.495e-5,"MEAN_MOTION_DDOT":0},{"OBJECT_NAME":"IRS-P6 (RESOURCESAT-1)","OBJECT_ID":"2003-046A","EPOCH":"2026-04-05T07:06:33.746688","MEAN_MOTION":14.36134638,"ECCENTRICITY":0.00636746,"INCLINATION":98.1989,"RA_OF_ASC_NODE":135.3534,"ARG_OF_PERICENTER":199.9203,"MEAN_ANOMALY":292.2665,"EPHEMERIS_TYPE":0,"CLASSIFICATION_TYPE":"U","NORAD_CAT_ID":28051,"ELEMENT_SET_NO":999,"REV_AT_EPOCH":17006,"BSTAR":0.00017014539,"MEAN_MOTION_DOT":4.66e-6,"MEAN_MOTION_DDOT":0},{"OBJECT_NAME":"SHIYAN-1 (SY-1)","OBJECT_ID":"2004-012A","EPOCH":"2026-04-05T04:46:18.265728","MEAN_MOTION":15.31930128,"ECCENTRICITY":0.00044802,"INCLINATION":97.8723,"RA_OF_ASC_NODE":168.6276,"ARG_OF_PERICENTER":274.9519,"MEAN_ANOMALY":85.1209,"EPHEMERIS_TYPE":0,"CLASSIFICATION_TYPE":"U","NORAD_CAT_ID":28220,"ELEMENT_SET_NO":999,"REV_AT_EPOCH":19991,"BSTAR":0.00061601991,"MEAN_MOTION_DOT":0.00018938,"MEAN_MOTION_DDOT":0},{"OBJECT_NAME":"AURA","OBJECT_ID":"2004-026A","EPOCH":"2026-04-05T04:45:19.331424","MEAN_MOTION":14.61214321,"ECCENTRICITY":0.00014303,"INCLINATION":98.3355,"RA_OF_ASC_NODE":51.0815,"ARG_OF_PERICENTER":94.2439,"MEAN_ANOMALY":265.8924,"EPHEMERIS_TYPE":0,"CLASSIFICATION_TYPE":"U","NORAD_CAT_ID":28376,"ELEMENT_SET_NO":999,"REV_AT_EPOCH":15555,"BSTAR":0.00031723985,"MEAN_MOTION_DOT":1.515e-5,"MEAN_MOTION_DDOT":0},{"OBJECT_NAME":"IRS-P5 (CARTOSAT-1)","OBJECT_ID":"2005-017A","EPOCH":"2026-04-05T01:25:38.697888","MEAN_MOTION":14.90862559,"ECCENTRICITY":8.968e-5,"INCLINATION":97.5372,"RA_OF_ASC_NODE":121.4278,"ARG_OF_PERICENTER":53.6932,"MEAN_ANOMALY":306.437,"EPHEMERIS_TYPE":0,"CLASSIFICATION_TYPE":"U","NORAD_CAT_ID":28649,"ELEMENT_SET_NO":999,"REV_AT_EPOCH":13292,"BSTAR":0.00020555545,"MEAN_MOTION_DOT":1.973e-5,"MEAN_MOTION_DDOT":0},{"OBJECT_NAME":"SINAH 1","OBJECT_ID":"2005-043D","EPOCH":"2026-04-05T06:31:07.122144","MEAN_MOTION":14.6410561,"ECCENTRICITY":0.00153223,"INCLINATION":98.2736,"RA_OF_ASC_NODE":229.2123,"ARG_OF_PERICENTER":141.1793,"MEAN_ANOMALY":219.0513,"EPHEMERIS_TYPE":0,"CLASSIFICATION_TYPE":"U","NORAD_CAT_ID":28893,"ELEMENT_SET_NO":999,"REV_AT_EPOCH":8985,"BSTAR":0.00014234569,"MEAN_MOTION_DOT":7.0e-6,"MEAN_MOTION_DDOT":0},{"OBJECT_NAME":"RESURS-DK 1","OBJECT_ID":"2006-021A","EPOCH":"2026-04-05T05:57:08.330112","MEAN_MOTION":15.12915812,"ECCENTRICITY":0.00020601,"INCLINATION":69.9329,"RA_OF_ASC_NODE":168.3203,"ARG_OF_PERICENTER":32.7151,"MEAN_ANOMALY":327.4142,"EPHEMERIS_TYPE":0,"CLASSIFICATION_TYPE":"U","NORAD_CAT_ID":29228,"ELEMENT_SET_NO":999,"REV_AT_EPOCH":9154,"BSTAR":0.00019855547,"MEAN_MOTION_DOT":3.399e-5,"MEAN_MOTION_DDOT":0},{"OBJECT_NAME":"ARIRANG-2 (KOMPSAT-2)","OBJECT_ID":"2006-031A","EPOCH":"2026-04-05T06:47:11.733216","MEAN_MOTION":14.64614007,"ECCENTRICITY":0.00133518,"INCLINATION":97.8304,"RA_OF_ASC_NODE":283.2532,"ARG_OF_PERICENTER":308.9139,"MEAN_ANOMALY":224.2485,"EPHEMERIS_TYPE":0,"CLASSIFICATION_TYPE":"U","NORAD_CAT_ID":29268,"ELEMENT_SET_NO":999,"REV_AT_EPOCH":5080,"BSTAR":0.00011532534,"MEAN_MOTION_DOT":5.68e-6,"MEAN_MOTION_DDOT":0},{"OBJECT_NAME":"LAPAN-TUBSAT","OBJECT_ID":"2007-001A","EPOCH":"2026-04-05T06:11:43.929312","MEAN_MOTION":14.85873371,"ECCENTRICITY":0.00135166,"INCLINATION":98.1343,"RA_OF_ASC_NODE":92.8452,"ARG_OF_PERICENTER":65.417,"MEAN_ANOMALY":294.8451,"EPHEMERIS_TYPE":0,"CLASSIFICATION_TYPE":"U","NORAD_CAT_ID":29709,"ELEMENT_SET_NO":999,"REV_AT_EPOCH":4032,"BSTAR":0.00011715338,"MEAN_MOTION_DOT":9.64e-6,"MEAN_MOTION_DDOT":0},{"OBJECT_NAME":"HAIYANG-1B","OBJECT_ID":"2007-010A","EPOCH":"2026-04-04T22:30:44.388000","MEAN_MOTION":14.31008397,"ECCENTRICITY":0.00146329,"INCLINATION":98.3461,"RA_OF_ASC_NODE":79.6408,"ARG_OF_PERICENTER":60.9864,"MEAN_ANOMALY":299.2784,"EPHEMERIS_TYPE":0,"CLASSIFICATION_TYPE":"U","NORAD_CAT_ID":31113,"ELEMENT_SET_NO":999,"REV_AT_EPOCH":99015,"BSTAR":7.4066765e-5,"MEAN_MOTION_DOT":1.53e-6,"MEAN_MOTION_DDOT":0}]
